1 29155U 06018A   09272.23749235 -.00000093  00000-0  10000-3 0  7650
2 29155 000.1337 122.6036 0003391 077.4341 148.0862 01.00272082 12295